{"type":"FeatureCollection","crs":{"type":"name","properties":{"name":"EPSG:4326"}},"features":[{"type":"Feature","geometry":{"type":"MultiPolygon","coordinates":[[[[-116.134341315401,43.5274851246808],[-116.134341312261,43.527482292509],[-116.134341715478,43.5274822920536],[-116.134341717633,43.527485163827],[-116.134343598492,43.5295304742326],[-116.134344934477,43.5309822688995],[-116.134345048182,43.5311057496085],[-116.134344548118,43.5310371309844],[-116.13434352807,43.5297132037066],[-116.13434338779,43.5295306018356],[-116.134341315401,43.5274851246808]]],[[[-116.134334947337,43.5202465236539],[-116.134332244484,43.5166315617658],[-116.134332242299,43.5166290742718],[-116.139314581046,43.516668107087],[-116.13931457975,43.5166679054994],[-116.139310819948,43.5145392081189],[-116.139308153975,43.5130299268571],[-116.139304551401,43.510455110332],[-116.139304054099,43.510174200466],[-116.139303444082,43.5098297723162],[-116.139319364096,43.5098395763314],[-116.139606956834,43.5100166782804],[-116.1401346734,43.5103804448028],[-116.141947438279,43.5113745600729],[-116.142086329572,43.5114539116844],[-116.142086544311,43.5114540378431],[-116.142220570065,43.5115377654055],[-116.142220736452,43.5115378719306],[-116.142349757696,43.5116259003407],[-116.142366262741,43.5116388220995],[-116.142474776124,43.5117237762614],[-116.142528232529,43.511765626525],[-116.142714168852,43.5119315634795],[-116.142888437083,43.5121082156047],[-116.142984793608,43.5122159459616],[-116.143024170631,43.5122411086311],[-116.143058306982,43.5123167377371],[-116.143059412283,43.5123191863419],[-116.143210051651,43.512652929764],[-116.143210130675,43.5126531022855],[-116.143301961177,43.5128565519915],[-116.143388308293,43.5130478493579],[-116.144129050167,43.5146895509948],[-116.144292748852,43.5150523382837],[-116.144296955902,43.5150616573076],[-116.145037511319,43.5167018546644],[-116.145037343408,43.5167018966429],[-116.145030731777,43.5167035259218],[-116.14485601422,43.5167465834338],[-116.145054629254,43.5171636499464],[-116.145375096395,43.5178789055697],[-116.145906021212,43.5190638472971],[-116.145954036783,43.5191710062179],[-116.145955948177,43.519175272627],[-116.147042218801,43.5215994924033],[-116.148943924499,43.5258605104984],[-116.149474611122,43.5270494675104],[-116.149522535925,43.5271523727721],[-116.149523169525,43.5271537340014],[-116.150399513021,43.5290353733466],[-116.150854851673,43.5300130033232],[-116.150961744101,43.5302424995322],[-116.151339095225,43.5310911878992],[-116.151345648571,43.5311059269713],[-116.151956546924,43.5324974258199],[-116.153133047255,43.5351036859063],[-116.15334508031,43.5356084229411],[-116.153360166592,43.5356443357694],[-116.153522970562,43.5360318785574],[-116.153695553407,43.5364116846927],[-116.153516971764,43.5364557247135],[-116.153516948663,43.5364570837363],[-116.153485456929,43.5383308802278],[-116.153484341135,43.5383308895652],[-116.149270861893,43.5383323122598],[-116.149270244587,43.5383323126156],[-116.149114213005,43.5383323624107],[-116.146543473457,43.5383331572702],[-116.146359166931,43.5383332122707],[-116.146359113331,43.5383331503592],[-116.144383104183,43.5362092123563],[-116.142620353786,43.5342684539741],[-116.142619301,43.534267295739],[-116.142619232853,43.5341256096353],[-116.142619216132,43.5340887112709],[-116.142457202562,43.5340888184162],[-116.14245716893,43.5340887825332],[-116.142413954883,43.5340412013982],[-116.141618201513,43.5331685875071],[-116.140774619106,43.5322434890483],[-116.14066122075,43.5321366542105],[-116.140540838306,43.5320339442401],[-116.140413752899,43.5319356011451],[-116.14028026537,43.5318418560666],[-116.140140688844,43.5317529284047],[-116.139995351227,43.5316690285097],[-116.139844595174,43.5315903531833],[-116.139688774388,43.5315170874909],[-116.139528254858,43.5314494038578],[-116.139363414845,43.5313874611694],[-116.139315242822,43.5313714618887],[-116.139314728388,43.5313712908476],[-116.139314537968,43.5311701553949],[-116.139314500387,43.5311018151089],[-116.139314499942,43.5311017458134],[-116.139315385576,43.5305448372859],[-116.136465266426,43.5278493483908],[-116.136155748708,43.5275447164779],[-116.134340437793,43.5257578678573],[-116.134337634648,43.5238408210554],[-116.13433629868,43.5220552452411],[-116.134334947337,43.5202465236539]]]]},"properties":{"BASEZONE":"I-3"}},{"type":"Feature","geometry":{"type":"Polygon","coordinates":[[[-116.134345048182,43.5311057496085],[-116.134344934477,43.5309822688995],[-116.134343598492,43.5295304742326],[-116.134341717633,43.527485163827],[-116.134341715478,43.5274822920536],[-116.134341312261,43.527482292509],[-116.134341315401,43.5274851246808],[-116.119480680637,43.5275031331638],[-116.119480678648,43.5275005781762],[-116.119480209877,43.5275005787911],[-116.119477338226,43.5238799524841],[-116.119473169258,43.5202620675667],[-116.119473168432,43.5202613241992],[-116.119469003902,43.5166456661897],[-116.119469002256,43.5166441803539],[-116.119469465996,43.5166441797553],[-116.119464829672,43.513026675155],[-116.114506230606,43.5130360898145],[-116.114503307862,43.5094191333387],[-116.114491871869,43.5021827213372],[-116.124404636812,43.5021732509951],[-116.124414216576,43.5057879254701],[-116.134319587643,43.5057641461334],[-116.134319771092,43.5093846068469],[-116.134332111155,43.516629064813],[-116.134332242299,43.5166290742718],[-116.134332244484,43.5166315617658],[-116.134334947337,43.5202465236539],[-116.13433629868,43.5220552452411],[-116.134337634648,43.5238408210554],[-116.134340437793,43.5257578678573],[-116.136155748708,43.5275447164779],[-116.136465266426,43.5278493483908],[-116.139315385576,43.5305448372859],[-116.139314499942,43.5311017458134],[-116.139314500387,43.5311018151089],[-116.138828209374,43.5311027670224],[-116.134462575951,43.5311056739616],[-116.134345274544,43.5311057497475],[-116.134345048182,43.5311057496085]]]},"properties":{"BASEZONE":"I-3"}}]}